NORAD_CAT_ID,OBJECT_NAME,OBJECT_TYPE,EPOCH,MEAN_MOTION,ECCENTRICITY,INCLINATION,RA_OF_ASC_NODE,ARG_OF_PERICENTER,MEAN_ANOMALY,BSTAR,MEAN_MOTION_DOT,MEAN_MOTION_DDOT,TLE_LINE0,TLE_LINE1,TLE_LINE2,SEMIMAJOR_AXIS,PERIOD,APOGEE,PERIGEE,DECAYED
49160.0,STARLINK-3095,PAYLOAD,2021-09-28 06:00:02,15.69974675,0.00033,70.0001,87.1153,266.2784,18.9052,-0.0029085,-0.00336983,0.0,0 STARLINK-3095,1 49160U 21082AG  21271.25002315 -.00336983  00000-0 -29085-2 0  9994,2 49160  70.0001  87.1153 0003300 266.2784  18.9052 15.69974675  3407,6737.106,91.721,361.195,356.74800000000016,0.0
49160.0,STARLINK-3095,PAYLOAD,2021-09-28 14:00:01,15.69750234,0.0003488,70.0004,86.1784,266.0466,102.3161,-4.8649e-05,-6.016e-05,0.0,0 STARLINK-3095,1 49160U 21082AG  21271.58334491 -.00006016  00000-0 -48649-4 0  9993,2 49160  70.0004  86.1784 0003488 266.0466 102.3161 15.69750234  3458,6737.749,91.734,361.964,357.26300000000015,0.0
49160.0,STARLINK-3095,PAYLOAD,2021-09-29 14:00:01,15.69823237,0.0003507,70.0019,83.3745,271.8347,345.9376,-6.2784e-05,-7.724e-05,0.0,0 STARLINK-3095,1 49160U 21082AG  21272.58334491 -.00007724  00000-0 -62784-4 0  9997,2 49160  70.0019  83.3745 0003507 271.8347 345.9376 15.69823237  3619,6737.54,91.73,361.768,357.042,0.0
49160.0,STARLINK-3095,PAYLOAD,2021-09-29 22:00:01,15.6953774,0.0003413,70.0002,82.4323,273.5583,67.5194,0.0022049,0.00269273,0.0,0 STARLINK-3095,1 49160U 21082AG  21272.91668981  .00269273  00000-0  22049-2 0  9993,2 49160  70.0002  82.4323 0003413 273.5583  67.5194 15.69537740  3661,6738.357,91.747,362.522,357.922,0.0
49160.0,STARLINK-3095,PAYLOAD,2021-09-30 06:00:02,15.69734011,0.0003658,70.0018,81.5007,272.6233,151.6086,0.00051931,0.00062206,0.0,0 STARLINK-3095,1 49160U 21082AG  21273.25002315  .00062206  00000-0  51931-3 0  9994,2 49160  70.0018  81.5007 0003658 272.6233 151.6086 15.69734011  3711,6737.795,91.735,362.125,357.195,0.0
49160.0,STARLINK-3095,PAYLOAD,2021-09-30 14:00:01,15.69830851,0.0003622,70.002,80.5639,273.035,234.2544,-0.00094946,-0.00112436,0.0,0 STARLINK-3095,1 49160U 21082AG  21273.58334491 -.00112436  00000-0 -94946-3 0  9999,2 49160  70.0020  80.5639 0003622 273.0350 234.2544 15.69830851  2928,6737.518,91.73,361.823,356.9430000000001,0.0
49160.0,STARLINK-3095,PAYLOAD,2021-09-30 18:00:00,15.69772556,0.0003594,70.0018,80.0954,276.3751,92.5202,-0.00045339,-0.00054044,0.0,0 STARLINK-3095,1 49160U 21082AG  21273.75001157 -.00054044  00000-0 -45339-3 0  9990,2 49160  70.0018  80.0954 0003594 276.3751  92.5202 15.69772556  3798,6737.685,91.733,361.971,357.12800000000016,0.0
49160.0,STARLINK-3095,PAYLOAD,2021-10-01 14:00:01,15.69777372,0.0003425,70.0015,77.7528,273.7489,122.9362,-0.00082532,-0.00097712,0.0,0 STARLINK-3095,1 49160U 21082AG  21274.58334491 -.00097712  00000-0 -82532-3 0  9997,2 49160  70.0015  77.7528 0003425 273.7489 122.9362 15.69777372  3928,6737.670999999999,91.733,361.844,357.228,0.0
49160.0,STARLINK-3095,PAYLOAD,2021-10-01 22:00:00,15.69700977,0.0003322,70.0006,76.8141,281.3464,198.4604,0.00060054,0.00071951,0.0,0 STARLINK-3095,1 49160U 21082AG  21274.91667824  .00071951  00000-0  60054-3 0  9993,2 49160  70.0006  76.8141 0003322 281.3464 198.4604 15.69700977  3972,6737.89,91.737,361.99300000000005,357.516,0.0
49160.0,STARLINK-3095,PAYLOAD,2021-10-02 06:00:00,15.69711761,0.0003253,70.0015,75.8789,275.4493,287.4627,0.0006688,0.00080268,0.0,0 STARLINK-3095,1 49160U 21082AG  21275.25001157  .00080268  00000-0  66880-3 0  9996,2 49160  70.0015  75.8789 0003253 275.4493 287.4627 15.69711761  3199,6737.859,91.737,361.916,357.532,0.0
49160.0,STARLINK-3095,PAYLOAD,2021-10-02 08:00:01,15.69708482,0.0003243,70.0014,75.6449,274.0476,39.6437,0.0009398,0.00113311,0.0,0 STARLINK-3095,1 49160U 21082AG  21275.33334491  .00113311  00000-0  93980-3 0  9992,2 49160  70.0014  75.6449 0003243 274.0476  39.6437 15.69708482  4041,6737.868,91.737,361.918,357.548,0.0
49160.0,STARLINK-3095,PAYLOAD,2021-10-03 06:00:00,15.69705252,0.0003653,70.0011,73.068,274.3976,177.9731,0.00075487,0.0009072,0.0,0 STARLINK-3095,1 49160U 21082AG  21276.25001157  .00090720  00000-0  75487-3 0  9994,2 49160  70.0011  73.0680 0003653 274.3976 177.9731 15.69705252  4180,6737.877,91.737,362.204,357.281,0.0
49160.0,STARLINK-3095,PAYLOAD,2021-10-03 14:00:01,15.69787162,0.000364,70.0015,72.1306,276.6216,258.8581,-0.00013389,-0.00016191,0.0,0 STARLINK-3095,1 49160U 21082AG  21276.58334491 -.00016191  00000-0 -13389-3 0  9995,2 49160  70.0015  72.1306 0003640 276.6216 258.8581 15.69787162  3403,6737.643,91.732,361.96,357.055,0.0
49160.0,STARLINK-3095,PAYLOAD,2021-10-03 22:00:01,15.70013981,0.000363,70.0004,71.1909,279.6999,338.968,-0.0060429,-0.00673905,0.0,0 STARLINK-3095,1 49160U 21082AG  21276.91668981 -.00673905  00000-0 -60429-2 0  9994,2 49160  70.0004  71.1909 0003630 279.6999 338.9680 15.70013981  4290,6736.994000000002,91.719,361.305,356.413,0.0
49160.0,STARLINK-3095,PAYLOAD,2021-10-04 06:00:02,15.69678227,0.0003327,70.0014,70.257,276.2066,65.5919,0.00076433,0.00091764,0.0,0 STARLINK-3095,1 49160U 21082AG  21277.25002315  .00091764  00000-0  76433-3 0  9993,2 49160  70.0014  70.2570 0003327 276.2066  65.5919 15.69678227  4348,6737.955,91.739,362.061,357.57800000000015,0.0
49160.0,STARLINK-3095,PAYLOAD,2021-10-04 14:00:01,15.69763659,0.0003453,70.0018,69.3203,277.678,147.1292,-0.00022366,-0.00026843,0.0,0 STARLINK-3095,1 49160U 21082AG  21277.58334491 -.00026843  00000-0 -22366-3 0  9996,2 49160  70.0018  69.3203 0003453 277.6780 147.1292 15.69763659  3560,6737.71,91.734,361.902,357.249,0.0
49160.0,STARLINK-3095,PAYLOAD,2021-10-04 20:00:01,15.69728716,0.0003506,70.0016,68.6175,282.1945,114.9651,0.0004976,0.00059563,0.0,0 STARLINK-3095,1 49160U 21082AG  21277.83334491  .00059563  00000-0  49760-3 0  9994,2 49160  70.0016  68.6175 0003506 282.1945 114.9651 15.69728716  4434,6737.81,91.736,362.037,357.31300000000016,0.0
49160.0,STARLINK-3095,PAYLOAD,2021-10-04 22:00:00,15.69745804,0.0003526,70.0013,68.3833,282.1619,225.7746,0.00029512,0.00035162,0.0,0 STARLINK-3095,1 49160U 21082AG  21277.91667824  .00035162  00000-0  29512-3 0  9994,2 49160  70.0013  68.3833 0003526 282.1619 225.7746 15.69745804  3622,6737.761,91.735,362.002,357.251,0.0
49160.0,STARLINK-3095,PAYLOAD,2021-10-05 14:00:01,15.69758771,0.0003317,70.0018,66.5093,278.445,35.7743,-0.00039957,-0.00047659,0.0,0 STARLINK-3095,1 49160U 21082AG  21278.58334491 -.00047659  00000-0 -39957-3 0  9999,2 49160  70.0018  66.5093 0003317 278.4450  35.7743 15.69758771  4550,6737.724,91.734,361.824,357.35400000000016,0.0
49160.0,STARLINK-3095,PAYLOAD,2021-10-05 22:00:01,15.69736566,0.000331,70.0015,65.5723,284.7517,112.6487,0.00022131,0.00026275,0.0,0 STARLINK-3095,1 49160U 21082AG  21278.91668981  .00026275  00000-0  22131-3 0  9995,2 49160  70.0015  65.5723 0003310 284.7517 112.6487 15.69736566  3741,6737.788000000001,91.735,361.883,357.423,0.0
49160.0,STARLINK-3095,PAYLOAD,2021-10-06 06:00:00,15.69715768,0.0003271,70.0021,64.6355,277.6589,202.8156,0.00083015,0.00099936,0.0,0 STARLINK-3095,1 49160U 21082AG  21279.25001157  .00099936  00000-0  83015-3 0  9991,2 49160  70.0021  64.6355 0003271 277.6589 202.8156 15.69715768  4652,6737.847,91.736,361.916,357.5080000000001,0.0
49160.0,STARLINK-3095,PAYLOAD,2021-10-06 14:00:01,15.69817799,0.0003436,70.0027,63.6987,279.7097,283.9499,-0.00084683,-0.0010039,0.0,0 STARLINK-3095,1 49160U 21082AG  21279.58335648 -.00100390  00000-0 -84683-3 0  9993,2 49160  70.0027  63.6987 0003436 279.7097 283.9499 15.69817799  4701,6737.555,91.73,361.735,357.105,0.0
49160.0,STARLINK-3095,PAYLOAD,2021-10-06 22:00:00,15.69742212,0.0003734,70.0023,62.7617,283.2298,3.5356,3.9948e-05,4.558e-05,0.0,0 STARLINK-3095,1 49160U 21082AG  21279.91667824  .00004558  00000-0  39948-4 0  9996,2 49160  70.0023  62.7617 0003734 283.2298   3.5356 15.69742212  3738,6737.772,91.735,362.152,357.121,0.0
49160.0,STARLINK-3095,PAYLOAD,2021-10-07 06:00:00,15.69715325,0.000365,70.0025,61.8248,277.212,92.6984,0.00091007,0.00109711,0.0,0 STARLINK-3095,1 49160U 21082AG  21280.25001157  .00109711  00000-0  91007-3 0  9996,2 49160  70.0025  61.8248 0003650 277.2120  92.6984 15.69715325  4815,6737.849,91.736,362.173,357.254,0.0
49160.0,STARLINK-3095,PAYLOAD,2021-10-07 14:00:01,15.69806111,0.000369,70.0027,60.8883,280.2576,172.7785,-0.00029401,-0.00035248,0.0,0 STARLINK-3095,1 49160U 21082AG  21280.58334491 -.00035248  00000-0 -29401-3 0  9996,2 49160  70.0027  60.8883 0003690 280.2576 172.7785 15.69806111  3704,6737.589,91.731,361.94,356.968,0.0
49160.0,STARLINK-3095,PAYLOAD,2021-10-07 22:00:00,15.69804891,0.0003618,70.0017,59.9513,284.5909,251.6117,-0.0010798,-0.00127478,0.0,0 STARLINK-3095,1 49160U 21082AG  21280.91667824 -.00127478  00000-0 -10798-2 0  9997,2 49160  70.0017  59.9513 0003618 284.5909 251.6117 15.69804891  4912,6737.592,91.731,361.895,357.02,0.0
49160.0,STARLINK-3095,PAYLOAD,2021-10-08 12:00:00,15.69727678,0.000373,70.0012,58.3119,279.244,312.382,-8.398e-05,-0.00010217,0.0,0 STARLINK-3095,1 49160U 21082AG  21281.50001157 -.00010217  00000-0 -83980-4 0  9991,2 49160  70.0012  58.3119 0003730 279.2440 312.3820 15.69727678  5002,6737.813,91.736,362.191,357.165,0.0
49160.0,STARLINK-3095,PAYLOAD,2021-10-08 14:00:01,15.69725899,0.0003761,70.0012,58.0777,280.9569,61.4443,-7.7072e-05,-9.394e-05,0.0,0 STARLINK-3095,1 49160U 21082AG  21281.58334491 -.00009394  00000-0 -77072-4 0  9998,2 49160  70.0012  58.0777 0003761 280.9569  61.4443 15.69725899  3693,6737.818,91.736,362.217,357.149,0.0
49160.0,STARLINK-3095,PAYLOAD,2021-10-08 22:00:00,15.69735793,0.000382,70.0008,57.1407,284.4881,140.9963,1.8095e-05,1.947e-05,0.0,0 STARLINK-3095,1 49160U 21082AG  21281.91667824  .00001947  00000-0  18095-4 0  9998,2 49160  70.0008  57.1407 0003820 284.4881 140.9963 15.69735793  3672,6737.79,91.735,362.229,357.081,0.0
